ONEWEB-0431             
1 51630U 22012J   24098.52561066  .00003147  00000+0  89908-2 0  9996
2 51630  87.8991 195.3746 0002073 127.2755 232.8561 13.10258602104487
ONEWEB-0434             
1 51631U 22012K   24098.50256623  .00000628  00000+0  17637-2 0  9996
2 51631  87.8995 195.3887 0001722 104.4863 255.6455 13.10320478104469
ONEWEB-0435             
1 51632U 22012L   24098.51083775  .00002360  00000+0  67304-2 0  9995
2 51632  87.8996 195.3776 0001483 112.6734 247.4550 13.10305132104454
ONEWEB-0436             
1 51633U 22012M   24098.46615952  .00000073  00000+0  15601-3 0  9991
2 51633  87.9228 165.1850 0001809 100.7760 259.3576 13.17649258108238
ONEWEB-0438             
1 51634U 22012N   24098.49425587  .00001646  00000+0  46801-2 0  9990
2 51634  87.9000 195.3814 0002048  99.2100 260.9259 13.10362731104488
ONEWEB-0439             
1 51635U 22012P   24098.49756311  .00002417  00000+0  68882-2 0  9993
2 51635  87.8998 195.3649 0002036 107.0855 253.0496 13.10357321104465
ONEWEB-0442             
1 51636U 22012Q   24098.60932182  .00000015  00000+0  65359-5 0  9990
2 51636  87.9230 165.1889 0002923  97.3696 262.7767 13.17650279108249
ONEWEB-0443             
1 51637U 22012R   24098.47722564  .00000108  00000+0  24426-3 0  9998
2 51637  87.9234 165.2217 0001613  91.7429 268.3887 13.17649865108274
